{
  "type": "FeatureCollection",
  "features": [
    {
      "type": "Feature",
      "properties": {
        "norad_id": 40376,
        "name": "SMAP",
        "group": "resource",
        "lat": -58.289222491782866,
        "lon": 14.81685405517021,
        "alt_km": 690.2144720929882,
        "timestamp": "2025-12-22T20:43:45.499995+00:00",
        "meta_object_name": "SMAP",
        "meta_object_id": "2015-003A",
        "meta_epoch": "2025-12-22T12:47:39.940224",
        "meta_mean_motion": 14.63356569,
        "meta_eccentricity": 0.00012284,
        "meta_inclination": 98.1289,
        "meta_ra_of_asc_node": 1.1158,
        "meta_arg_of_pericenter": 92.1773,
        "meta_mean_anomaly": 267.957,
        "meta_ephemeris_type": 0,
        "meta_classification_type": "U",
        "meta_norad_cat_id": 40376,
        "meta_element_set_no": 999,
        "meta_rev_at_epoch": 58178,
        "meta_bstar": 9.917817e-05,
        "meta_mean_motion_dot": 4.65e-06,
        "meta_mean_motion_ddot": 0,
        "tle_line1": "1 40376U 15003A   25356.53310116  .00000465  00000+0  99178-4 0  9992",
        "tle_line2": "2 40376  98.1289   1.1158 0001228  92.1773 267.9570 14.63356569581780"
      },
      "geometry": {
        "type": "Point",
        "coordinates": [
          14.81685405517021,
          -58.289222491782866
        ]
      }
    },
    {
      "type": "Feature",
      "properties": {
        "norad_id": 40536,
        "name": "KOMPSAT-3A",
        "group": "resource",
        "lat": 51.02051461440999,
        "lon": -37.82794553109672,
        "alt_km": 426.49057081555475,
        "timestamp": "2025-12-22T20:43:45.500005+00:00",
        "meta_object_name": "KOMPSAT-3A",
        "meta_object_id": "2015-014A",
        "meta_epoch": "2025-12-22T14:17:09.325248",
        "meta_mean_motion": 15.44286784,
        "meta_eccentricity": 0.00055817,
        "meta_inclination": 97.68,
        "meta_ra_of_asc_node": 331.4884,
        "meta_arg_of_pericenter": 105.471,
        "meta_mean_anomaly": 254.7154,
        "meta_ephemeris_type": 0,
        "meta_classification_type": "U",
        "meta_norad_cat_id": 40536,
        "meta_element_set_no": 999,
        "meta_rev_at_epoch": 59447,
        "meta_bstar": 0.00043247335,
        "meta_mean_motion_dot": 0.00019844,
        "meta_mean_motion_ddot": 0,
        "tle_line1": "1 40536U 15014A   25356.59524682  .00019844  00000+0  43247-3 0  9999",
        "tle_line2": "2 40536  97.6800 331.4884 0005581 105.4710 254.7154 15.44286784594474"
      },
      "geometry": {
        "type": "Point",
        "coordinates": [
          -37.82794553109672,
          51.02051461440999
        ]
      }
    },
    {
      "type": "Feature",
      "properties": {
        "norad_id": 40697,
        "name": "SENTINEL-2A",
        "group": "resource",
        "lat": 63.80184920061511,
        "lon": 51.39883484494936,
        "alt_km": 782.0601667771716,
        "timestamp": "2025-12-22T20:43:45.500015+00:00",
        "meta_object_name": "SENTINEL-2A",
        "meta_object_id": "2015-028A",
        "meta_epoch": "2025-12-22T13:42:45.421920",
        "meta_mean_motion": 14.30809375,
        "meta_eccentricity": 0.00010747,
        "meta_inclination": 98.5738,
        "meta_ra_of_asc_node": 68.9664,
        "meta_arg_of_pericenter": 87.394,
        "meta_mean_anomaly": 272.7366,
        "meta_ephemeris_type": 0,
        "meta_classification_type": "U",
        "meta_norad_cat_id": 40697,
        "meta_element_set_no": 999,
        "meta_rev_at_epoch": 54847,
        "meta_bstar": 0.00010418978,
        "meta_mean_motion_dot": 2.29e-06,
        "meta_mean_motion_ddot": 0,
        "tle_line1": "1 40697U 15028A   25356.57135905  .00000229  00000+0  10419-3 0  9998",
        "tle_line2": "2 40697  98.5738  68.9664 0001074  87.3940 272.7366 14.30809375548471"
      },
      "geometry": {
        "type": "Point",
        "coordinates": [
          51.39883484494936,
          63.80184920061511
        ]
      }
    },
    {
      "type": "Feature",
      "properties": {
        "norad_id": 40701,
        "name": "GAOFEN-8",
        "group": "resource",
        "lat": 75.96932037470266,
        "lon": 142.76502224501928,
        "alt_km": 434.8831121742469,
        "timestamp": "2025-12-22T20:43:45.500026+00:00",
        "meta_object_name": "GAOFEN-8",
        "meta_object_id": "2015-030A",
        "meta_epoch": "2025-12-22T09:28:00.859296",
        "meta_mean_motion": 15.38873493,
        "meta_eccentricity": 0.00117643,
        "meta_inclination": 97.6904,
        "meta_ra_of_asc_node": 175.0072,
        "meta_arg_of_pericenter": 104.66,
        "meta_mean_anomaly": 255.595,
        "meta_ephemeris_type": 0,
        "meta_classification_type": "U",
        "meta_norad_cat_id": 40701,
        "meta_element_set_no": 999,
        "meta_rev_at_epoch": 58419,
        "meta_bstar": 0.00072175287,
        "meta_mean_motion_dot": 0.00027798,
        "meta_mean_motion_ddot": 0,
        "tle_line1": "1 40701U 15030A   25356.39445439  .00027798  00000+0  72175-3 0  9990",
        "tle_line2": "2 40701  97.6904 175.0072 0011764 104.6600 255.5950 15.38873493584196"
      },
      "geometry": {
        "type": "Point",
        "coordinates": [
          142.76502224501928,
          75.96932037470266
        ]
      }
    },
    {
      "type": "Feature",
      "properties": {
        "norad_id": 40718,
        "name": "CARBONITE 1 (CBNT-1)",
        "group": "resource",
        "lat": 45.86685999918163,
        "lon": 5.413707063153173,
        "alt_km": 606.3963254476284,
        "timestamp": "2025-12-22T20:43:45.500036+00:00",
        "meta_object_name": "CARBONITE 1 (CBNT-1)",
        "meta_object_id": "2015-032D",
        "meta_epoch": "2025-12-22T13:39:03.823200",
        "meta_mean_motion": 14.8278387,
        "meta_eccentricity": 0.00150786,
        "meta_inclination": 97.6396,
        "meta_ra_of_asc_node": 177.1797,
        "meta_arg_of_pericenter": 149.4697,
        "meta_mean_anomaly": 210.7398,
        "meta_ephemeris_type": 0,
        "meta_classification_type": "U",
        "meta_norad_cat_id": 40718,
        "meta_element_set_no": 999,
        "meta_rev_at_epoch": 56316,
        "meta_bstar": 0.00016316059,
        "meta_mean_motion_dot": 1.271e-05,
        "meta_mean_motion_ddot": 0,
        "tle_line1": "1 40718U 15032D   25356.56879425  .00001271  00000+0  16316-3 0  9998",
        "tle_line2": "2 40718  97.6396 177.1797 0015078 149.4697 210.7398 14.82783870563161"
      },
      "geometry": {
        "type": "Point",
        "coordinates": [
          5.413707063153173,
          45.86685999918163
        ]
      }
    },
    {
      "type": "Feature",
      "properties": {
        "norad_id": 40878,
        "name": "YAOGAN-27",
        "group": "resource",
        "lat": -63.94588707323251,
        "lon": 144.64381929379974,
        "alt_km": 1201.390354715435,
        "timestamp": "2025-12-22T20:43:45.500046+00:00",
        "meta_object_name": "YAOGAN-27",
        "meta_object_id": "2015-040A",
        "meta_epoch": "2025-12-22T14:00:35.953344",
        "meta_mean_motion": 13.16059527,
        "meta_eccentricity": 0.00075848,
        "meta_inclination": 100.1008,
        "meta_ra_of_asc_node": 345.7583,
        "meta_arg_of_pericenter": 262.4718,
        "meta_mean_anomaly": 97.5534,
        "meta_ephemeris_type": 0,
        "meta_classification_type": "U",
        "meta_norad_cat_id": 40878,
        "meta_element_set_no": 999,
        "meta_rev_at_epoch": 49443,
        "meta_bstar": -0.00032389042,
        "meta_mean_motion_dot": -1.65e-06,
        "meta_mean_motion_ddot": 0,
        "tle_line1": "1 40878U 15040A   25356.58374946 -.00000165  00000+0 -32389-3 0  9995",
        "tle_line2": "2 40878 100.1008 345.7583 0007584 262.4718  97.5534 13.16059527494434"
      },
      "geometry": {
        "type": "Point",
        "coordinates": [
          144.64381929379974,
          -63.94588707323251
        ]
      }
    },
    {
      "type": "Feature",
      "properties": {
        "norad_id": 40894,
        "name": "GAOFEN-9 01",
        "group": "resource",
        "lat": 41.94133164102683,
        "lon": 28.44213072478945,
        "alt_km": 603.6120384788874,
        "timestamp": "2025-12-22T20:43:45.500056+00:00",
        "meta_object_name": "GAOFEN-9 01",
        "meta_object_id": "2015-047A",
        "meta_epoch": "2025-12-22T14:03:35.564256",
        "meta_mean_motion": 14.82445202,
        "meta_eccentricity": 0.00275852,
        "meta_inclination": 97.6529,
        "meta_ra_of_asc_node": 35.1156,
        "meta_arg_of_pericenter": 2.5506,
        "meta_mean_anomaly": 357.5844,
        "meta_ephemeris_type": 0,
        "meta_classification_type": "U",
        "meta_norad_cat_id": 40894,
        "meta_element_set_no": 999,
        "meta_rev_at_epoch": 55402,
        "meta_bstar": 0.00012965946,
        "meta_mean_motion_dot": 9.95e-06,
        "meta_mean_motion_ddot": 0,
        "tle_line1": "1 40894U 15047A   25356.58582829  .00000995  00000+0  12966-3 0  9999",
        "tle_line2": "2 40894  97.6529  35.1156 0027585   2.5506 357.5844 14.82445202554025"
      },
      "geometry": {
        "type": "Point",
        "coordinates": [
          28.44213072478945,
          41.94133164102683
        ]
      }
    }
  ]
}